PROGRESS-MS 32          
1 65586U 25204A   25318.22475630  .00013472  00000+0  24659-3 0  9996
2 65586  51.6329 283.6283 0004194  68.4296 291.7139 15.49650045   273
CYGNUS NG-23            
1 65616U 25208A   25318.22475630  .00013472  00000+0  24659-3 0  9994
2 65616  51.6329 283.6283 0004194  68.4296 291.7139 15.49650045   222
DRAGONFLY               
1 65729U 98067XH  25318.29701594  .00136575  00000+0  14516-2 0  9990
2 65729  51.6290 280.3622 0004860 125.0740 235.0711 15.63074521  8702
1998-067XJ              
1 65730U 98067XJ  25318.11553860  .00731880  00000+0  38886-2 0  9990
2 65730  51.6246 279.1320 0011076 114.1824 246.0336 15.77864219  8706
1998-067XK              
1 65731U 98067XK  25318.27721314  .00089311  00000+0  10741-2 0  9994
2 65731  51.6311 280.9837 0005590 100.5626 259.5997 15.60074493  8695
RSP-03                  
1 65732U 98067XL  25318.19172238  .00114107  00000+0  12937-2 0  9992
2 65732  51.6294 281.1605 0006376 102.7497 257.4210 15.61492578  8699
GHS-01                  
1 65733U 98067XM  25318.28165987  .00154368  00000+0  15665-2 0  9990
2 65733  51.6302 280.2627 0005385 122.3086 237.8431 15.64181916  8719
YOTSUBA-KULOVER         
1 65941U 98067XN  25318.15483772  .00071093  00000+0  10319-2 0  9996
2 65941  51.6312 283.1629 0002557  59.5120 300.6123 15.55159308  5403
BOTAN                   
1 65942U 98067XP  25318.26806544  .00099589  00000+0  13576-2 0  9993
2 65942  51.6307 282.4197 0004695  72.5108 287.6396 15.56700686  5426
E-KAGAKU-1              
1 65943U 98067XQ  25318.28293212  .00069698  00000+0  10114-2 0  9991
2 65943  51.6323 282.5192 0004274  57.2513 302.8889 15.55168737  5425
HTV-X1                  
1 66174U 25241A   25318.22475630  .00013472  00000+0  24659-3 0  9991
2 66174  51.6329 283.6283 0004194  68.4296 291.7139 15.49650045  1458
